[{"OBJECT_NAME":"ONEWEB-0321","OBJECT_ID":"2021-083F","EPOCH":"2026-01-07T19:46:17.404320","MEAN_MOTION":13.20771731,"ECCENTRICITY":0.0001528,"INCLINATION":87.9228,"RA_OF_ASC_NODE":306.4226,"ARG_OF_PERICENTER":69.8476,"MEAN_ANOMALY":290.2821,"EPHEMERIS_TYPE":0,"CLASSIFICATION_TYPE":"U","NORAD_CAT_ID":49191,"ELEMENT_SET_NO":999,"REV_AT_EPOCH":21566,"BSTAR":-3.6813e-5,"MEAN_MOTION_DOT":-2.0e-8,"MEAN_MOTION_DDOT":0},{"OBJECT_NAME":"ONEWEB-0322","OBJECT_ID":"2021-083G","EPOCH":"2026-01-07T15:34:52.029120","MEAN_MOTION":13.13469137,"ECCENTRICITY":0.0001602,"INCLINATION":87.8983,"RA_OF_ASC_NODE":352.1543,"ARG_OF_PERICENTER":68.3822,"MEAN_ANOMALY":291.7478,"EPHEMERIS_TYPE":0,"CLASSIFICATION_TYPE":"U","NORAD_CAT_ID":49192,"ELEMENT_SET_NO":999,"REV_AT_EPOCH":20984,"BSTAR":0.00042873,"MEAN_MOTION_DOT":1.69e-6,"MEAN_MOTION_DDOT":0},{"OBJECT_NAME":"ONEWEB-0324","OBJECT_ID":"2021-083H","EPOCH":"2026-01-07T17:35:19.097088","MEAN_MOTION":13.18684488,"ECCENTRICITY":0.0001678,"INCLINATION":87.9178,"RA_OF_ASC_NODE":7.3063,"ARG_OF_PERICENTER":92.6432,"MEAN_ANOMALY":267.4892,"EPHEMERIS_TYPE":0,"CLASSIFICATION_TYPE":"U","NORAD_CAT_ID":49193,"ELEMENT_SET_NO":999,"REV_AT_EPOCH":20885,"BSTAR":-0.00015384,"MEAN_MOTION_DOT":-4.8e-7,"MEAN_MOTION_DDOT":0},{"OBJECT_NAME":"ONEWEB-0325","OBJECT_ID":"2021-083J","EPOCH":"2026-01-07T17:40:03.664128","MEAN_MOTION":13.18685784,"ECCENTRICITY":0.0001755,"INCLINATION":87.9178,"RA_OF_ASC_NODE":7.3252,"ARG_OF_PERICENTER":85.8223,"MEAN_ANOMALY":274.311,"EPHEMERIS_TYPE":0,"CLASSIFICATION_TYPE":"U","NORAD_CAT_ID":49194,"ELEMENT_SET_NO":999,"REV_AT_EPOCH":20886,"BSTAR":2.1815e-5,"MEAN_MOTION_DOT":2.2e-7,"MEAN_MOTION_DDOT":0},{"OBJECT_NAME":"ONEWEB-0326","OBJECT_ID":"2021-083K","EPOCH":"2026-01-07T12:33:52.037280","MEAN_MOTION":13.18685349,"ECCENTRICITY":0.0002044,"INCLINATION":87.9178,"RA_OF_ASC_NODE":7.3544,"ARG_OF_PERICENTER":90.6155,"MEAN_ANOMALY":269.5212,"EPHEMERIS_TYPE":0,"CLASSIFICATION_TYPE":"U","NORAD_CAT_ID":49195,"ELEMENT_SET_NO":999,"REV_AT_EPOCH":20882,"BSTAR":0.00024443,"MEAN_MOTION_DOT":1.09e-6,"MEAN_MOTION_DDOT":0},{"OBJECT_NAME":"ONEWEB-0327","OBJECT_ID":"2021-083L","EPOCH":"2026-01-07T18:01:15.198240","MEAN_MOTION":13.18683956,"ECCENTRICITY":0.0002028,"INCLINATION":87.9172,"RA_OF_ASC_NODE":7.326,"ARG_OF_PERICENTER":89.3999,"MEAN_ANOMALY":270.7366,"EPHEMERIS_TYPE":0,"CLASSIFICATION_TYPE":"U","NORAD_CAT_ID":49196,"ELEMENT_SET_NO":999,"REV_AT_EPOCH":20887,"BSTAR":0.0012563,"MEAN_MOTION_DOT":5.08e-6,"MEAN_MOTION_DDOT":0},{"OBJECT_NAME":"ONEWEB-0328","OBJECT_ID":"2021-083M","EPOCH":"2026-01-07T20:49:19.973856","MEAN_MOTION":13.13469154,"ECCENTRICITY":0.0001671,"INCLINATION":87.8996,"RA_OF_ASC_NODE":352.0621,"ARG_OF_PERICENTER":89.1405,"MEAN_ANOMALY":270.9916,"EPHEMERIS_TYPE":0,"CLASSIFICATION_TYPE":"U","NORAD_CAT_ID":49197,"ELEMENT_SET_NO":999,"REV_AT_EPOCH":20985,"BSTAR":0.00097922,"MEAN_MOTION_DOT":3.7e-6,"MEAN_MOTION_DDOT":0},{"OBJECT_NAME":"ONEWEB-0331","OBJECT_ID":"2021-083N","EPOCH":"2026-01-07T17:51:56.336256","MEAN_MOTION":13.18685103,"ECCENTRICITY":0.0001982,"INCLINATION":87.9178,"RA_OF_ASC_NODE":7.3033,"ARG_OF_PERICENTER":96.8574,"MEAN_ANOMALY":263.2784,"EPHEMERIS_TYPE":0,"CLASSIFICATION_TYPE":"U","NORAD_CAT_ID":49198,"ELEMENT_SET_NO":999,"REV_AT_EPOCH":20886,"BSTAR":0.00010384,"MEAN_MOTION_DOT":5.4e-7,"MEAN_MOTION_DDOT":0},{"OBJECT_NAME":"ONEWEB-0333","OBJECT_ID":"2021-083P","EPOCH":"2026-01-07T20:42:01.261440","MEAN_MOTION":13.13470154,"ECCENTRICITY":0.0001803,"INCLINATION":87.8978,"RA_OF_ASC_NODE":352.1118,"ARG_OF_PERICENTER":83.8489,"MEAN_ANOMALY":276.2846,"EPHEMERIS_TYPE":0,"CLASSIFICATION_TYPE":"U","NORAD_CAT_ID":49199,"ELEMENT_SET_NO":999,"REV_AT_EPOCH":20986,"BSTAR":0.0011291,"MEAN_MOTION_DOT":4.25e-6,"MEAN_MOTION_DDOT":0},{"OBJECT_NAME":"ONEWEB-0334","OBJECT_ID":"2021-083Q","EPOCH":"2026-01-07T20:11:16.814976","MEAN_MOTION":13.20771391,"ECCENTRICITY":0.0001727,"INCLINATION":87.922,"RA_OF_ASC_NODE":306.4435,"ARG_OF_PERICENTER":44.5599,"MEAN_ANOMALY":315.5673,"EPHEMERIS_TYPE":0,"CLASSIFICATION_TYPE":"U","NORAD_CAT_ID":49200,"ELEMENT_SET_NO":999,"REV_AT_EPOCH":21562,"BSTAR":0.00015504,"MEAN_MOTION_DOT":7.6e-7,"MEAN_MOTION_DDOT":0},{"OBJECT_NAME":"ONEWEB-0335","OBJECT_ID":"2021-083R","EPOCH":"2026-01-07T20:34:42.828096","MEAN_MOTION":13.13470108,"ECCENTRICITY":0.0001908,"INCLINATION":87.8985,"RA_OF_ASC_NODE":352.1022,"ARG_OF_PERICENTER":89.1661,"MEAN_ANOMALY":270.9687,"EPHEMERIS_TYPE":0,"CLASSIFICATION_TYPE":"U","NORAD_CAT_ID":49201,"ELEMENT_SET_NO":999,"REV_AT_EPOCH":20987,"BSTAR":0.0011413,"MEAN_MOTION_DOT":4.3e-6,"MEAN_MOTION_DDOT":0},{"OBJECT_NAME":"ONEWEB-0336","OBJECT_ID":"2021-083S","EPOCH":"2026-01-07T16:13:51.998592","MEAN_MOTION":13.13468598,"ECCENTRICITY":0.0001989,"INCLINATION":87.8987,"RA_OF_ASC_NODE":352.1355,"ARG_OF_PERICENTER":95.9206,"MEAN_ANOMALY":264.215,"EPHEMERIS_TYPE":0,"CLASSIFICATION_TYPE":"U","NORAD_CAT_ID":49202,"ELEMENT_SET_NO":999,"REV_AT_EPOCH":20984,"BSTAR":-0.00075625,"MEAN_MOTION_DOT":-2.63e-6,"MEAN_MOTION_DDOT":0},{"OBJECT_NAME":"ONEWEB-0337","OBJECT_ID":"2021-083T","EPOCH":"2026-01-07T16:28:17.438880","MEAN_MOTION":13.13471329,"ECCENTRICITY":0.0001687,"INCLINATION":87.8983,"RA_OF_ASC_NODE":352.145,"ARG_OF_PERICENTER":92.2657,"MEAN_ANOMALY":267.8665,"EPHEMERIS_TYPE":0,"CLASSIFICATION_TYPE":"U","NORAD_CAT_ID":49203,"ELEMENT_SET_NO":999,"REV_AT_EPOCH":20984,"BSTAR":9.835e-5,"MEAN_MOTION_DOT":4.9e-7,"MEAN_MOTION_DDOT":0},{"OBJECT_NAME":"ONEWEB-0338","OBJECT_ID":"2021-083U","EPOCH":"2026-01-07T19:34:55.705728","MEAN_MOTION":13.20772669,"ECCENTRICITY":0.0001608,"INCLINATION":87.9222,"RA_OF_ASC_NODE":306.4518,"ARG_OF_PERICENTER":67.8884,"MEAN_ANOMALY":292.242,"EPHEMERIS_TYPE":0,"CLASSIFICATION_TYPE":"U","NORAD_CAT_ID":49204,"ELEMENT_SET_NO":999,"REV_AT_EPOCH":21564,"BSTAR":1.1631e-5,"MEAN_MOTION_DOT":1.8e-7,"MEAN_MOTION_DDOT":0},{"OBJECT_NAME":"ONEWEB-0339","OBJECT_ID":"2021-083V","EPOCH":"2026-01-07T20:20:04.383744","MEAN_MOTION":13.13471046,"ECCENTRICITY":0.0001572,"INCLINATION":87.8987,"RA_OF_ASC_NODE":352.096,"ARG_OF_PERICENTER":83.9379,"MEAN_ANOMALY":276.1929,"EPHEMERIS_TYPE":0,"CLASSIFICATION_TYPE":"U","NORAD_CAT_ID":49205,"ELEMENT_SET_NO":999,"REV_AT_EPOCH":20984,"BSTAR":0.00061208,"MEAN_MOTION_DOT":2.36e-6,"MEAN_MOTION_DDOT":0},{"OBJECT_NAME":"ONEWEB-0340","OBJECT_ID":"2021-083W","EPOCH":"2026-01-07T17:32:56.232960","MEAN_MOTION":13.18685479,"ECCENTRICITY":0.0001847,"INCLINATION":87.918,"RA_OF_ASC_NODE":7.3108,"ARG_OF_PERICENTER":89.7229,"MEAN_ANOMALY":270.4115,"EPHEMERIS_TYPE":0,"CLASSIFICATION_TYPE":"U","NORAD_CAT_ID":49206,"ELEMENT_SET_NO":999,"REV_AT_EPOCH":20882,"BSTAR":3.3667e-5,"MEAN_MOTION_DOT":2.6e-7,"MEAN_MOTION_DDOT":0},{"OBJECT_NAME":"ONEWEB-0341","OBJECT_ID":"2021-083X","EPOCH":"2026-01-07T12:14:39.265152","MEAN_MOTION":13.18684697,"ECCENTRICITY":0.0001499,"INCLINATION":87.9179,"RA_OF_ASC_NODE":7.3658,"ARG_OF_PERICENTER":105.0291,"MEAN_ANOMALY":255.1007,"EPHEMERIS_TYPE":0,"CLASSIFICATION_TYPE":"U","NORAD_CAT_ID":49207,"ELEMENT_SET_NO":999,"REV_AT_EPOCH":20881,"BSTAR":3.6293e-6,"MEAN_MOTION_DOT":1.4e-7,"MEAN_MOTION_DDOT":0}]
