ONEWEB-0321             
1 49191U 21083F   26007.82381255 -.00000002  00000+0 -36813-4 0  9995
2 49191  87.9228 306.4226 0001528  69.8476 290.2821 13.20771731215667
ONEWEB-0322             
1 49192U 21083G   26007.64921330  .00000169  00000+0  42873-3 0  9994
2 49192  87.8983 352.1543 0001602  68.3822 291.7478 13.13469137209840
ONEWEB-0324             
1 49193U 21083H   26007.73285992 -.00000048  00000+0 -15384-3 0  9997
2 49193  87.9178   7.3063 0001678  92.6432 267.4892 13.18684488208857
ONEWEB-0325             
1 49194U 21083J   26007.73615352  .00000022  00000+0  21815-4 0  9992
2 49194  87.9178   7.3252 0001755  85.8223 274.3110 13.18685784208867
ONEWEB-0326             
1 49195U 21083K   26007.52351895  .00000109  00000+0  24443-3 0  9994
2 49195  87.9178   7.3544 0002044  90.6155 269.5212 13.18685349208824
ONEWEB-0327             
1 49196U 21083L   26007.75087035  .00000508  00000+0  12563-2 0  9994
2 49196  87.9172   7.3260 0002028  89.3999 270.7366 13.18683956208878
ONEWEB-0328             
1 49197U 21083M   26007.86759229  .00000370  00000+0  97922-3 0  9998
2 49197  87.8996 352.0621 0001671  89.1405 270.9916 13.13469154209855
ONEWEB-0331             
1 49198U 21083N   26007.74440204  .00000054  00000+0  10384-3 0  9992
2 49198  87.9178   7.3033 0001982  96.8574 263.2784 13.18685103208860
ONEWEB-0333             
1 49199U 21083P   26007.86251460  .00000425  00000+0  11291-2 0  9999
2 49199  87.8978 352.1118 0001803  83.8489 276.2846 13.13470154209863
ONEWEB-0334             
1 49200U 21083Q   26007.84116684  .00000076  00000+0  15504-3 0  9992
2 49200  87.9220 306.4435 0001727  44.5599 315.5673 13.20771391215623
ONEWEB-0335             
1 49201U 21083R   26007.85744014  .00000430  00000+0  11413-2 0  9996
2 49201  87.8985 352.1022 0001908  89.1661 270.9687 13.13470108209870
ONEWEB-0336             
1 49202U 21083S   26007.67629628 -.00000263  00000+0 -75625-3 0  9992
2 49202  87.8987 352.1355 0001989  95.9206 264.2150 13.13468598209849
ONEWEB-0337             
1 49203U 21083T   26007.68631295  .00000049  00000+0  98350-4 0  9998
2 49203  87.8983 352.1450 0001687  92.2657 267.8665 13.13471329209843
ONEWEB-0338             
1 49204U 21083U   26007.81592252  .00000018  00000+0  11631-4 0  9996
2 49204  87.9222 306.4518 0001608  67.8884 292.2420 13.20772669215646
ONEWEB-0339             
1 49205U 21083V   26007.84727296  .00000236  00000+0  61208-3 0  9994
2 49205  87.8987 352.0960 0001572  83.9379 276.1929 13.13471046209847
ONEWEB-0340             
1 49206U 21083W   26007.73120640  .00000026  00000+0  33667-4 0  9999
2 49206  87.9180   7.3108 0001847  89.7229 270.4115 13.18685479208824
ONEWEB-0341             
1 49207U 21083X   26007.51017668  .00000014  00000+0  36293-5 0  9997
2 49207  87.9179   7.3658 0001499 105.0291 255.1007 13.18684697208817
